ONEWEB-0311             
1 49097U 21075Y   25154.17430146  .00000204  00000+0  49186-3 0  9993
2 49097  87.9070  81.3223 0002207  69.3970 290.7398 13.17650288184716
ONEWEB-0312             
1 49098U 21075Z   25153.20231863  .00000085  00000+0  18667-3 0  9999
2 49098  87.9068  81.5468 0002416  76.7313 283.4087 13.17650205184546
ONEWEB-0313             
1 49099U 21075AA  25153.89066015 -.00000005  00000+0 -46727-4 0  9993
2 49099  87.9069  81.4251 0001952  75.0864 285.0484 13.17650281184648
ONEWEB-0314             
1 49100U 21075AB  25153.85705269  .00000064  00000+0  13276-3 0  9998
2 49100  87.9063  81.3642 0002412  75.2339 284.9060 13.17649072184609
ONEWEB-0315             
1 49101U 21075AC  25154.23443658 -.00000280  00000+0 -81318-3 0  9997
2 49101  87.8885  66.0225 0001940  67.1804 292.9529 13.12443683186460
ONEWEB-0316             
1 49102U 21075AD  25153.77701679  .00000011  00000+0 -60253-5 0  9994
2 49102  87.9156  50.8697 0001899  73.1743 286.9598 13.18687087188217
ONEWEB-0317             
1 49103U 21075AE  25154.22794834 -.00000086  00000+0 -27495-3 0  9993
2 49103  87.8886  66.0390 0002346  98.5692 261.5702 13.12440839186476
ONEWEB-0318             
1 49104U 21075AF  25153.77386170 -.00000006  00000+0 -47775-4 0  9999
2 49104  87.9158  50.8558 0001938  71.3921 288.7421 13.18685520188168
